NORAD_CAT_ID,OBJECT_NAME,OBJECT_TYPE,EPOCH,MEAN_MOTION,ECCENTRICITY,INCLINATION,RA_OF_ASC_NODE,ARG_OF_PERICENTER,MEAN_ANOMALY,BSTAR,MEAN_MOTION_DOT,MEAN_MOTION_DDOT,TLE_LINE0,TLE_LINE1,TLE_LINE2,SEMIMAJOR_AXIS,PERIOD,APOGEE,PERIGEE,DECAYED
52692.0,STARLINK-3993,PAYLOAD,2022-10-21 03:29:33,15.0883301,0.0002012,53.2189,290.6874,41.8445,318.27,5.6224e-05,6.07e-06,0.0,0 STARLINK-3993,1 52692U 22053AN  22294.14552358  .00000607  00000-0  56224-4 0  9994,2 52692  53.2189 290.6874 0002012  41.8445 318.2700 15.08833010 24221,6917.901999999999,95.438,541.159,538.375,0.0
52692.0,STARLINK-3993,PAYLOAD,2022-10-21 09:51:05,15.08834978,0.0001991,53.2189,289.4977,40.4086,319.7053,2.5565e-05,1.19e-06,0.0,0 STARLINK-3993,1 52692U 22053AN  22294.41048405  .00000119  00000-0  25565-4 0  9999,2 52692  53.2189 289.4977 0001991  40.4086 319.7053 15.08834978 24661,6917.896,95.438,541.138,538.383,0.0
52692.0,STARLINK-3993,PAYLOAD,2022-10-22 03:20:19,15.08844978,0.0002006999999999,53.2183,286.2257,37.7117,322.4015,9.917e-05,1.291e-05,0.0,0 STARLINK-3993,1 52692U 22053AN  22295.13911429  .00001291  00000-0  99170-4 0  9999,2 52692  53.2183 286.2257 0002007  37.7117 322.4015 15.08844978 24372,6917.865,95.437,541.119,538.342,0.0
52692.0,STARLINK-3993,PAYLOAD,2022-10-22 11:17:15,15.08842355,0.0002005999999999,53.2188,284.7399,36.3832,323.7296,-5.5733e-05,-1.175e-05,0.0,0 STARLINK-3993,1 52692U 22053AN  22295.47032064 -.00001175  00000-0 -55733-4 0  9995,2 52692  53.2188 284.7399 0002006  36.3832 323.7296 15.08842355 24423,6917.873000000001,95.437,541.126,538.35,0.0
52692.0,STARLINK-3993,PAYLOAD,2022-10-23 09:32:39,15.08840844,0.0001995,53.2189,280.5767,38.2084,321.9049,8.859999999999999e-05,1.122e-05,0.0,0 STARLINK-3993,1 52692U 22053AN  22296.39767760  .00001122  00000-0  88600-4 0  9994,2 52692  53.2189 280.5767 0001995  38.2084 321.9049 15.08840844 24969,6917.878000000002,95.438,541.123,538.363,0.0
52692.0,STARLINK-3993,PAYLOAD,2022-10-24 07:48:03,15.08833338,0.0002131999999999,53.2196,276.4133,38.6052,321.5092,-1.3072e-06,-3.09e-06,0.0,0 STARLINK-3993,1 52692U 22053AN  22297.32504132 -.00000309  00000-0 -13072-5 0  9990,2 52692  53.2196 276.4133 0002132  38.6052 321.5092 15.08833338 24707,6917.901,95.438,541.241,538.2909999999998,0.0
52692.0,STARLINK-3993,PAYLOAD,2022-10-24 10:58:49,15.08833002,0.0001909999999999,53.219,275.8197,36.8938,323.2186,-1.6202000000000002e-05,-5.46e-06,0.0,0 STARLINK-3993,1 52692U 22053AN  22297.45752192 -.00000546  00000-0 -16202-4 0  9995,2 52692  53.2190 275.8197 0001910  36.8938 323.2186 15.08833002 25128,6917.901999999999,95.438,541.0880000000002,538.445,0.0
52692.0,STARLINK-3993,PAYLOAD,2022-10-24 15:45:00,15.08820397,0.0002190999999999,53.2195,274.9267,43.8513,316.2652,-0.00011782,-2.162e-05,0.0,0 STARLINK-3993,1 52692U 22053AN  22297.65625588 -.00002162  00000-0 -11782-3 0  9998,2 52692  53.2195 274.9267 0002191  43.8513 316.2652 15.08820397 24751,6917.94,95.439,541.321,538.29,0.0
52692.0,STARLINK-3993,PAYLOAD,2022-10-25 07:38:51,15.08826999,0.0001961,53.2191,271.9536,40.9244,319.1895,-5.417399999999999e-05,-1.15e-05,0.0,0 STARLINK-3993,1 52692U 22053AN  22298.31865443 -.00001150  00000-0 -54174-4 0  9997,2 52692  53.2191 271.9536 0001961  40.9244 319.1895 15.08826999 24852,6917.92,95.438,541.1419999999998,538.429,0.0
52692.0,STARLINK-3993,PAYLOAD,2022-10-25 15:35:47,15.08833343,0.0002031,53.2189,270.4675,40.6768,319.4376,-4.0059e-05,-9.26e-06,0.0,0 STARLINK-3993,1 52692U 22053AN  22298.64985249 -.00000926  00000-0 -40059-4 0  9997,2 52692  53.2189 270.4675 0002031  40.6768 319.4376 15.08833343 24908,6917.901,95.438,541.1709999999998,538.361,0.0
52692.0,STARLINK-3993,PAYLOAD,2022-10-26 07:29:38,15.08837542,0.0002005999999999,53.2187,267.4937,40.6246,319.4896,0.00011674,1.57e-05,0.0,0 STARLINK-3993,1 52692U 22053AN  22299.31224673  .00001570  00000-0  11674-3 0  9993,2 52692  53.2187 267.4937 0002006  40.6246 319.4896 15.08837542 25000,6917.888000000001,95.438,541.141,538.365,0.0
52692.0,STARLINK-3993,PAYLOAD,2022-10-26 15:26:33,15.08837035,0.0002092,53.2189,266.0071,42.2231,317.8922,0.00015578,2.192e-05,0.0,0 STARLINK-3993,1 52692U 22053AN  22299.64344776  .00002192  00000-0  15578-3 0  9994,2 52692  53.2189 266.0071 0002092  42.2231 317.8922 15.08837035 25451,6917.889,95.438,541.202,538.307,0.0
52692.0,STARLINK-3993,PAYLOAD,2022-10-27 07:20:25,15.08840042,0.0002013,53.2188,263.0332,42.4918,317.623,0.00019619,2.836e-05,0.0,0 STARLINK-3993,1 52692U 22053AN  22300.30584927  .00002836  00000-0  19619-3 0  9999,2 52692  53.2188 263.0332 0002013  42.4918 317.6230 15.08840042 25557,6917.88,95.438,541.138,538.3530000000002,0.0
52692.0,STARLINK-3993,PAYLOAD,2022-10-27 15:17:20,15.08843395,0.0002024,53.2189,261.5462,43.1896,316.9254,0.0001836,2.635e-05,0.0,0 STARLINK-3993,1 52692U 22053AN  22300.63704796  .00002635  00000-0  18360-3 0  9992,2 52692  53.2189 261.5462 0002024  43.1896 316.9254 15.08843395 25204,6917.87,95.437,541.135,538.335,0.0
52692.0,STARLINK-3993,PAYLOAD,2022-10-28 07:11:11,15.08856436,0.0002025,53.2191,258.5725,43.6876,316.4276,0.00015453,2.173e-05,0.0,0 STARLINK-3993,1 52692U 22053AN  22301.29943795  .00002173  00000-0  15453-3 0  9996,2 52692  53.2191 258.5725 0002025  43.6876 316.4276 15.08856436 25309,6917.83,95.437,541.096,538.294,0.0
52692.0,STARLINK-3993,PAYLOAD,2022-10-29 03:51:12,15.08847682,0.0002017,53.2193,254.7074,43.0053,317.1096,8.2926e-05,1.032e-05,0.0,0 STARLINK-3993,1 52692U 22053AN  22302.16055951  .00001032  00000-0  82926-4 0  9994,2 52692  53.2193 254.7074 0002017  43.0053 317.1096 15.08847682 25433,6917.857,95.437,541.117,538.327,0.0
52692.0,STARLINK-3993,PAYLOAD,2022-10-29 07:01:58,15.08854513,0.0001968,53.219,254.1119,41.3941,318.72,0.00013609,1.879e-05,0.0,0 STARLINK-3993,1 52692U 22053AN  22302.29303328  .00001879  00000-0  13609-3 0  9992,2 52692  53.2190 254.1119 0001968  41.3941 318.7200 15.08854513 25856,6917.8359999999975,95.437,541.062,538.34,0.0
52692.0,STARLINK-3993,PAYLOAD,2022-10-30 03:42:00,15.0883542,0.0001996999999999,53.2191,250.2472,43.385,316.7299,-0.0001094999999999,-2.03e-05,0.0,0 STARLINK-3993,1 52692U 22053AN  22303.15416946 -.00002030  00000-0 -10950-3 0  9997,2 52692  53.2191 250.2472 0001997  43.3850 316.7299 15.08835420 25985,6917.894,95.438,541.141,538.378,0.0
52692.0,STARLINK-3993,PAYLOAD,2022-10-30 13:14:19,15.08825058,0.0002014,53.2188,248.4626,42.319,317.7957,-0.00019316,-3.3600000000000004e-05,0.0,0 STARLINK-3993,1 52692U 22053AN  22303.55162008 -.00003360  00000-0 -19316-3 0  9990,2 52692  53.2188 248.4626 0002014  42.3190 317.7957 15.08825058 26044,6917.926,95.438,541.184,538.398,0.0
52692.0,STARLINK-3993,PAYLOAD,2022-10-31 08:18:57,15.08826416,0.0002115,53.2185,244.8948,41.6738,318.4415,-5.4876e-05,-1.161e-05,0.0,0 STARLINK-3993,1 52692U 22053AN  22304.34649610 -.00001161  00000-0 -54876-4 0  9995,2 52692  53.2185 244.8948 0002115  41.6738 318.4415 15.08826416 26169,6917.922,95.438,541.25,538.3240000000002,0.0
52692.0,STARLINK-3993,PAYLOAD,2022-10-31 19:26:39,15.08832092,0.0001393,53.218,242.8122,42.7601,317.35,0.0001441999999999,2.007e-05,0.0,0 STARLINK-3993,1 52692U 22053AN  22304.81017583  .00002007  00000-0  14420-3 0  9993,2 52692  53.2180 242.8122 0001393  42.7601 317.3500 15.08832092 26232,6917.905,95.438,540.7330000000002,538.806,0.0
52692.0,STARLINK-3993,PAYLOAD,2022-11-01 01:48:11,15.08844387,0.0001962,53.218,241.6244,41.1883,318.9257,0.00037958,5.759e-05,0.0,0 STARLINK-3993,1 52692U 22053AN  22305.07513175  .00005759  00000-0  37958-3 0  9998,2 52692  53.2180 241.6244 0001962  41.1883 318.9257 15.08844387 25876,6917.8669999999975,95.437,541.089,538.375,0.0
52692.0,STARLINK-3993,PAYLOAD,2022-11-01 12:55:53,15.08833208,0.0002201999999999,53.2186,239.5431,44.9947,315.1223,0.00015616,2.197e-05,0.0,0 STARLINK-3993,1 52692U 22053AN  22305.53881877  .00002197  00000-0  15616-3 0  9996,2 52692  53.2186 239.5431 0002202  44.9947 315.1223 15.08833208 26341,6917.901,95.438,541.289,538.243,0.0
52692.0,STARLINK-3993,PAYLOAD,2022-11-01 19:17:27,15.08805153,0.0001661,53.218,238.3537,42.0989,318.013,-0.00019351,-3.363e-05,0.0,0 STARLINK-3993,1 52692U 22053AN  22305.80379604 -.00003363  00000-0 -19351-3 0  9994,2 52692  53.2180 238.3537 0001661  42.0989 318.0130 15.08805153 25988,6917.986999999999,95.44,541.001,538.703,0.0
52692.0,STARLINK-3993,PAYLOAD,2022-11-02 03:14:22,15.08838364,0.0001829,53.2184,236.8676,46.8346,313.2799,0.00010003,1.304e-05,0.0,0 STARLINK-3993,1 52692U 22053AN  22306.13498202  .00001304  00000-0  10003-3 0  9993,2 52692  53.2184 236.8676 0001829  46.8346 313.2799 15.08838364 26039,6917.885,95.438,541.016,538.485,0.0
52692.0,STARLINK-3993,PAYLOAD,2022-11-02 12:46:40,15.08849163,0.0001803,53.218,235.0829,44.5156,315.5981,0.0002595,3.845e-05,0.0,0 STARLINK-3993,1 52692U 22053AN  22306.53241701  .00003845  00000-0  25950-3 0  9996,2 52692  53.2180 235.0829 0001803  44.5156 315.5981 15.08849163 26095,6917.852,95.437,540.965,538.47,0.0
52692.0,STARLINK-3993,PAYLOAD,2022-11-03 06:15:55,15.08847565,0.0001874,53.2174,231.812,45.5604,314.5541,0.00021156,3.081e-05,0.0,0 STARLINK-3993,1 52692U 22053AN  22307.26105638  .00003081  00000-0  21156-3 0  9991,2 52692  53.2174 231.8120 0001874  45.5604 314.5541 15.08847565 26201,6917.857,95.437,541.019,538.4259999999998,0.0
52692.0,STARLINK-3993,PAYLOAD,2022-11-04 02:55:54,15.08862195,0.0001832,53.2179,227.9469,41.5856,318.5276,0.00035135,5.311e-05,0.0,0 STARLINK-3993,1 52692U 22053AN  22308.12216418  .00005311  00000-0  35135-3 0  9996,2 52692  53.2179 227.9469 0001832  41.5856 318.5276 15.08862195 26336,6917.813,95.436,540.945,538.41,0.0
52692.0,STARLINK-3993,PAYLOAD,2022-11-04 06:06:41,15.08861404,0.000188,53.2176,227.3513,47.4283,312.6867,0.00024613,3.633e-05,0.0,0 STARLINK-3993,1 52692U 22053AN  22308.25464234  .00003633  00000-0  24613-3 0  9995,2 52692  53.2176 227.3513 0001880  47.4283 312.6867 15.08861404 26758,6917.815,95.436,540.981,538.379,0.0
